NORAD_CAT_ID,OBJECT_NAME,OBJECT_TYPE,EPOCH,MEAN_MOTION,ECCENTRICITY,INCLINATION,RA_OF_ASC_NODE,ARG_OF_PERICENTER,MEAN_ANOMALY,BSTAR,MEAN_MOTION_DOT,MEAN_MOTION_DDOT,TLE_LINE0,TLE_LINE1,TLE_LINE2,SEMIMAJOR_AXIS,PERIOD,APOGEE,PERIGEE,DECAYED
55283.0,STARLINK-5317,PAYLOAD,2024-08-02 07:36:48,14.98338923,0.0002872,70.0029,77.8227,274.9009,85.1822,0.00024103,2.785e-05,0.0,0 STARLINK-5317,1 55283U 23010Q   24215.31722465  .00002785  00000-0  24103-3 0  9998,2 55283  70.0029  77.8227 0002872 274.9009  85.1822 14.98338923 84947,6950.165,96.106,574.026,570.034,0.0
55283.0,STARLINK-5317,PAYLOAD,2024-08-02 20:25:53,14.98323359,0.0003014,70.0006,76.4813,266.223,93.8585,0.0001657,1.884e-05,0.0,0 STARLINK-5317,1 55283U 23010Q   24215.85131479  .00001884  00000-0  16570-3 0  9994,2 55283  70.0006  76.4813 0003014 266.2230  93.8585 14.98323359 85026,6950.213,96.107,574.173,569.984,0.0
55283.0,STARLINK-5317,PAYLOAD,2024-08-02 22:02:01,14.9832506,0.0003149,70.0004,76.313,267.7936,92.2862,0.00014862,1.681e-05,0.0,0 STARLINK-5317,1 55283U 23010Q   24215.91807392  .00001681  00000-0  14862-3 0  9992,2 55283  70.0004  76.3130 0003149 267.7936  92.2862 14.98325060 85339,6950.208,96.107,574.262,569.885,0.0
55283.0,STARLINK-5317,PAYLOAD,2024-08-03 07:38:49,14.98341668,0.0003564,69.999,75.299,272.2076,87.8675,-8.2699e-05,-1.08e-05,0.0,0 STARLINK-5317,1 55283U 23010Q   24216.31862532 -.00001080  00000-0 -82699-4 0  9993,2 55283  69.9990  75.2990 0003564 272.2076  87.8675 14.98341668 85096,6950.157,96.106,574.499,569.545,0.0
55283.0,STARLINK-5317,PAYLOAD,2024-08-03 14:03:21,14.98335841,0.0003089,69.9995,74.6261,270.8997,89.1808,1.7643e-05,1.18e-06,0.0,0 STARLINK-5317,1 55283U 23010Q   24216.58567008  .00000118  00000-0  17643-4 0  9998,2 55283  69.9995  74.6261 0003089 270.8997  89.1808 14.98335841 85430,6950.175,96.107,574.187,569.893,0.0
55283.0,STARLINK-5317,PAYLOAD,2024-08-03 22:04:01,14.98339654,0.0003095,70.0008,73.7854,269.0532,91.0273,0.00012578,1.408e-05,0.0,0 STARLINK-5317,1 55283U 23010Q   24216.91946468  .00001408  00000-0  12578-3 0  9990,2 55283  70.0008  73.7854 0003095 269.0532  91.0273 14.98339654 85487,6950.163,96.106,574.179,569.877,0.0
55283.0,STARLINK-5317,PAYLOAD,2024-08-04 07:40:49,14.98342819,0.0003348,70.0008,72.7744,271.2597,88.8178,7.3572e-05,7.85e-06,0.0,0 STARLINK-5317,1 55283U 23010Q   24217.32002120  .00000785  00000-0  73572-4 0  9993,2 55283  70.0008  72.7744 0003348 271.2597  88.8178 14.98342819 85240,6950.153,96.106,574.345,569.691,0.0
55283.0,STARLINK-5317,PAYLOAD,2024-08-04 14:05:22,14.98337432,0.0002764,70.0017,72.1034,266.9036,93.1807,8.8337e-05,9.61e-06,0.0,0 STARLINK-5317,1 55283U 23010Q   24217.58706593  .00000961  00000-0  88337-4 0  9997,2 55283  70.0017  72.1034 0002764 266.9036  93.1807 14.98337432 85586,6950.17,96.107,573.956,570.114,0.0
55283.0,STARLINK-5317,PAYLOAD,2024-08-04 20:29:54,14.98340282,0.0003064,70.0006,71.4281,267.2571,92.8238,0.00037709,4.41e-05,0.0,0 STARLINK-5317,1 55283U 23010Q   24217.85410387  .00004410  00000-0  37709-3 0  9999,2 55283  70.0006  71.4281 0003064 267.2571  92.8238 14.98340282 85325,6950.161,96.106,574.156,569.897,0.0
55283.0,STARLINK-5317,PAYLOAD,2024-08-04 22:06:02,14.98339843,0.0002858,70.0009,71.2617,264.4589,95.6244,0.00032753,3.818e-05,0.0,0 STARLINK-5317,1 55283U 23010Q   24217.92086456  .00003818  00000-0  32753-3 0  9998,2 55283  70.0009  71.2617 0002858 264.4589  95.6244 14.98339843 85630,6950.162,96.106,574.014,570.041,0.0
55283.0,STARLINK-5317,PAYLOAD,2024-08-05 20:31:55,14.98330404,0.0003081,70.0005,68.9033,271.3007,88.7799,-3.4348e-05,-5.03e-06,0.0,0 STARLINK-5317,1 55283U 23010Q   24218.85550706 -.00000503  00000-0 -34348-4 0  9998,2 55283  70.0005  68.9033 0003081 271.3007  88.7799 14.98330404 85476,6950.192,96.107,574.198,569.915,0.0
55283.0,STARLINK-5317,PAYLOAD,2024-08-05 22:08:03,14.98330438,0.000308,70.0005,68.735,271.4644,88.6162,-2.9672e-05,-4.47e-06,0.0,0 STARLINK-5317,1 55283U 23010Q   24218.92226709 -.00000447  00000-0 -29672-4 0  9990,2 55283  70.0005  68.7350 0003080 271.4644  88.6162 14.98330438 85787,6950.192,96.107,574.197,569.916,0.0
55283.0,STARLINK-5317,PAYLOAD,2024-08-06 14:09:24,14.98328383,0.0003048,70.0007,67.0513,271.4417,88.6393,9.6362e-05,1.057e-05,0.0,0 STARLINK-5317,1 55283U 23010Q   24219.58986915  .00001057  00000-0  96362-4 0  9991,2 55283  70.0007  67.0513 0003048 271.4417  88.6393 14.98328383 85887,6950.198,96.107,574.181,569.944,0.0
55283.0,STARLINK-5317,PAYLOAD,2024-08-06 22:10:04,14.98333169,0.0002908,70.001,66.2096,270.1728,89.9098,7.1656e-05,7.62e-06,0.0,0 STARLINK-5317,1 55283U 23010Q   24219.92366677  .00000762  00000-0  71656-4 0  9997,2 55283  70.0010  66.2096 0002908 270.1728  89.9098 14.98333169 85933,6950.183,96.107,574.069,570.027,0.0
55283.0,STARLINK-5317,PAYLOAD,2024-08-06 23:46:12,14.98333948,0.0002949,70.0008,66.0415,270.8324,89.2497,0.0001219,1.362e-05,0.0,0 STARLINK-5317,1 55283U 23010Q   24219.99042631  .00001362  00000-0  12190-3 0  9999,2 55283  70.0008  66.0415 0002949 270.8324  89.2497 14.98333948 85646,6950.181,96.107,574.095,569.996,0.0
55283.0,STARLINK-5317,PAYLOAD,2024-08-07 20:35:57,14.98336261,0.0002976,70.001,63.8531,272.5607,87.5211,0.00024672,2.853e-05,0.0,0 STARLINK-5317,1 55283U 23010Q   24220.85830523  .00002853  00000-0  24672-3 0  9995,2 55283  70.0010  63.8531 0002976 272.5607  87.5211 14.98336261 86070,6950.174,96.107,574.107,569.97,0.0
55283.0,STARLINK-5317,PAYLOAD,2024-08-08 14:13:26,14.98337024,0.0002871,70.0015,62.0016,275.1491,84.934,0.000183,2.092e-05,0.0,0 STARLINK-5317,1 55283U 23010Q   24221.59266459  .00002092  00000-0  18300-3 0  9994,2 55283  70.0015  62.0016 0002871 275.1491  84.9340 14.98337024 86182,6950.171,96.107,574.032,570.041,0.0
55283.0,STARLINK-5317,PAYLOAD,2024-08-08 20:37:58,14.98335951,0.0002712,70.0021,61.3305,258.7229,101.3626,0.00015192,1.72e-05,0.0,0 STARLINK-5317,1 55283U 23010Q   24221.85970355  .00001720  00000-0  15192-3 0  9993,2 55283  70.0021  61.3305 0002712 258.7229 101.3626 14.98335951 85921,6950.174,96.107,573.924,570.155,0.0
55283.0,STARLINK-5317,PAYLOAD,2024-08-08 22:14:06,14.98336525,0.0002715,70.0021,61.1622,259.6362,100.4491,0.0001556,1.764e-05,0.0,0 STARLINK-5317,1 55283U 23010Q   24221.92646307  .00001764  00000-0  15560-3 0  9995,2 55283  70.0021  61.1622 0002715 259.6362 100.4491 14.98336525 86235,6950.173,96.107,573.925,570.151,0.0
55283.0,STARLINK-5317,PAYLOAD,2024-08-09 12:39:17,14.98354422,0.0003452,70.0002,59.6444,273.775,86.3015,0.00023999,2.773e-05,0.0,0 STARLINK-5317,1 55283U 23010Q   24222.52728938  .00002773  00000-0  23999-3 0  9999,2 55283  70.0002  59.6444 0003452 273.7750  86.3015 14.98354422 86022,6950.117,96.105,574.382,569.583,0.0
55283.0,STARLINK-5317,PAYLOAD,2024-08-09 14:15:25,14.9835638,0.0003323,70.0002,59.4767,269.1499,90.9279,0.00035663,4.168e-05,0.0,0 STARLINK-5317,1 55283U 23010Q   24222.59404772  .00004168  00000-0  35663-3 0  9994,2 55283  70.0002  59.4767 0003323 269.1499  90.9279 14.98356380 86336,6950.111,96.105,574.286,569.667,0.0
55283.0,STARLINK-5317,PAYLOAD,2024-08-09 20:39:59,14.9832725,0.0002877,70.0018,58.8038,269.2832,90.7998,-0.00013571,-1.712e-05,0.0,0 STARLINK-5317,1 55283U 23010Q   24222.86110230 -.00001712  00000-0 -13571-3 0  9995,2 55283  70.0018  58.8038 0002877 269.2832  90.7998 14.98327250 86073,6950.201,96.107,574.066,570.067,0.0
55283.0,STARLINK-5317,PAYLOAD,2024-08-10 14:17:27,14.98326777,0.0003036,70.0017,56.9514,269.5541,90.527,-2.6089e-05,-4.04e-06,0.0,0 STARLINK-5317,1 55283U 23010Q   24223.59546295 -.00000404  00000-0 -26089-4 0  9996,2 55283  70.0017  56.9514 0003036 269.5541  90.5270 14.98326777 86487,6950.203,96.107,574.178,569.958,0.0
55283.0,STARLINK-5317,PAYLOAD,2024-08-10 20:42:00,14.9833153,0.000297,70.0021,56.2787,265.4625,94.6195,0.0001244,1.392e-05,0.0,0 STARLINK-5317,1 55283U 23010Q   24223.86250155  .00001392  00000-0  12440-3 0  9993,2 55283  70.0021  56.2787 0002970 265.4625  94.6195 14.98331530 86227,6950.188,96.107,574.117,569.989,0.0
55283.0,STARLINK-5317,PAYLOAD,2024-08-10 22:18:08,14.98332032,0.0002898,70.0025,56.1099,265.9651,94.1176,0.00012699,1.423e-05,0.0,0 STARLINK-5317,1 55283U 23010Q   24223.92926027  .00001423  00000-0  12699-3 0  9999,2 55283  70.0025  56.1099 0002898 265.9651  94.1176 14.98332032 86535,6950.187,96.107,574.066,570.037,0.0
55283.0,STARLINK-5317,PAYLOAD,2024-08-11 22:20:09,14.98335811,0.0003059,70.0021,53.5827,271.1921,88.8887,0.00033496,3.907e-05,0.0,0 STARLINK-5317,1 55283U 23010Q   24224.93066245  .00003907  00000-0  33496-3 0  9995,2 55283  70.0021  53.5827 0003059 271.1921  88.8887 14.98335811 86683,6950.175,96.107,574.166,569.914,0.0
55283.0,STARLINK-5317,PAYLOAD,2024-08-11 23:56:17,14.98332813,0.0002938,70.0037,53.4149,268.8155,91.2668,0.00046271,5.433e-05,0.0,0 STARLINK-5317,1 55283U 23010Q   24224.99742477  .00005433  00000-0  46271-3 0  9990,2 55283  70.0037  53.4149 0002938 268.8155  91.2668 14.98332813 86395,6950.184,96.107,574.091,570.007,0.0
55283.0,STARLINK-5317,PAYLOAD,2024-08-12 11:09:13,14.98333152,0.0002903,70.0024,52.2377,270.5982,89.4845,0.00032749,3.817e-05,0.0,0 STARLINK-5317,1 55283U 23010Q   24225.46474498  .00003817  00000-0  32749-3 0  9997,2 55283  70.0024  52.2377 0002903 270.5982  89.4845 14.98333152 86765,6950.183,96.107,574.066,570.031,0.0
55283.0,STARLINK-5317,PAYLOAD,2024-08-12 22:22:09,14.98349648,0.0003159,70.0026,51.0603,270.7536,89.3261,0.00076158,9.01e-05,0.0,0 STARLINK-5317,1 55283U 23010Q   24225.93205944  .00009010  00000-0  76158-3 0  9990,2 55283  70.0026  51.0603 0003159 270.7536  89.3261 14.98349648 86833,6950.132,96.106,574.193,569.802,0.0
55283.0,STARLINK-5317,PAYLOAD,2024-08-13 06:22:51,14.98317276,0.0002163,70.0056,50.2184,274.344,85.7472,-0.00033209,-4.051e-05,0.0,0 STARLINK-5317,1 55283U 23010Q   24226.26587151 -.00004051  00000-0 -33209-3 0  9992,2 55283  70.0056  50.2184 0002163 274.3440  85.7472 14.98317276 86587,6950.232,96.108,573.601,570.594,0.0
